NORAD_CAT_ID,OBJECT_NAME,OBJECT_TYPE,EPOCH,MEAN_MOTION,ECCENTRICITY,INCLINATION,RA_OF_ASC_NODE,ARG_OF_PERICENTER,MEAN_ANOMALY,BSTAR,MEAN_MOTION_DOT,MEAN_MOTION_DDOT,TLE_LINE0,TLE_LINE1,TLE_LINE2,SEMIMAJOR_AXIS,PERIOD,APOGEE,PERIGEE,DECAYED
50197.0,STARLINK-3267,PAYLOAD,2024-03-29 12:47:13,15.08854584,0.0001594,53.2168,187.1388,82.3657,277.7516,6.7269e-05,7.83e-06,0.0,0 STARLINK-3267,1 50197U 21125AT  24089.53279450  .00000783  00000-0  67269-4 0  9993,2 50197  53.2168 187.1388 0001594  82.3657 277.7516 15.08854584129572,6917.836,95.437,540.804,538.598,0.0
50197.0,STARLINK-3267,PAYLOAD,2024-03-30 12:38:00,15.08843644,0.0001513,53.2158,182.6775,95.1647,264.9518,0.00017031,2.424e-05,0.0,0 STARLINK-3267,1 50197U 21125AT  24090.52639718  .00002424  00000-0  17031-3 0  9996,2 50197  53.2158 182.6775 0001513  95.1647 264.9518 15.08843644129196,6917.869,95.437,540.781,538.688,0.0
50197.0,STARLINK-3267,PAYLOAD,2024-03-31 12:28:48,15.08835016,0.00014,53.2166,178.2179,90.6526,269.4627,1.1561e-05,-1.04e-06,0.0,0 STARLINK-3267,1 50197U 21125AT  24091.52000574 -.00000104  00000-0  11561-4 0  9996,2 50197  53.2166 178.2179 0001400  90.6526 269.4627 15.08835016129347,6917.896,95.438,540.729,538.792,0.0
50197.0,STARLINK-3267,PAYLOAD,2024-04-01 12:19:34,15.08846468,0.0001285,53.2167,173.7581,89.235,270.8789,0.00017773,2.542e-05,0.0,0 STARLINK-3267,1 50197U 21125AT  24092.51359789  .00002542  00000-0  17773-3 0  9998,2 50197  53.2167 173.7581 0001285  89.2350 270.8789 15.08846468129499,6917.861,95.437,540.615,538.837,0.0
50197.0,STARLINK-3267,PAYLOAD,2024-04-02 12:10:22,15.08847075,0.0001196,53.2159,169.2978,86.4003,273.7126,0.00021044,3.064e-05,0.0,0 STARLINK-3267,1 50197U 21125AT  24093.50720026  .00003064  00000-0  21044-3 0  9990,2 50197  53.2159 169.2978 0001196  86.4003 273.7126 15.08847075129644,6917.859,95.437,540.551,538.896,0.0
50197.0,STARLINK-3267,PAYLOAD,2024-04-02 21:42:40,15.08862349,0.0001287,53.2165,167.5134,89.568,270.546,0.00035986,5.447e-05,0.0,0 STARLINK-3267,1 50197U 21125AT  24093.90462983  .00005447  00000-0  35986-3 0  9996,2 50197  53.2165 167.5134 0001287  89.5680 270.5460 15.08862349130236,6917.812,95.436,540.567,538.787,0.0
50197.0,STARLINK-3267,PAYLOAD,2024-04-03 10:25:44,15.08857139,0.000154,53.2184,165.1376,98.5029,261.6138,0.00011737,1.581e-05,0.0,0 STARLINK-3267,1 50197U 21125AT  24094.43454781  .00001581  00000-0  11737-3 0  9995,2 50197  53.2184 165.1376 0001540  98.5029 261.6138 15.08857139129780,6917.828,95.436,540.758,538.628,0.0
50197.0,STARLINK-3267,PAYLOAD,2024-04-03 13:36:31,15.08858289,0.0001463,53.218,164.5418,93.2878,266.8281,0.00011869,1.602e-05,0.0,0 STARLINK-3267,1 50197U 21125AT  24094.56702554  .00001602  00000-0  11869-3 0  9993,2 50197  53.2180 164.5418 0001463  93.2878 266.8281 15.08858289130330,6917.824,95.436,540.702,538.677,0.0
50197.0,STARLINK-3267,PAYLOAD,2024-04-03 21:33:27,15.08841112,0.0001683,53.2162,163.0525,92.1102,268.0083,-0.00016259,-2.875e-05,0.0,0 STARLINK-3267,1 50197U 21125AT  24094.89823301 -.00002875  00000-0 -16259-3 0  9996,2 50197  53.2162 163.0525 0001683  92.1102 268.0083 15.08841112130381,6917.877,95.437,540.906,538.578,0.0
50197.0,STARLINK-3267,PAYLOAD,2024-04-04 03:55:00,15.08835634,0.0001734,53.2159,161.8635,90.9996,269.1194,-8.2833e-05,-1.606e-05,0.0,0 STARLINK-3267,1 50197U 21125AT  24095.16319686 -.00001606  00000-0 -82833-4 0  9996,2 50197  53.2159 161.8635 0001734  90.9996 269.1194 15.08835634129890,6917.894,95.438,540.958,538.559,0.0
50197.0,STARLINK-3267,PAYLOAD,2024-04-04 11:51:56,15.08824045,0.0001517,53.2169,160.3778,94.982,265.1345,-0.00027464,-4.654e-05,0.0,0 STARLINK-3267,1 50197U 21125AT  24095.49440458 -.00004654  00000-0 -27464-3 0  9998,2 50197  53.2169 160.3778 0001517  94.9820 265.1345 15.08824045129946,6917.929,95.439,540.844,538.745,0.0
50197.0,STARLINK-3267,PAYLOAD,2024-04-04 21:24:15,15.08837468,0.0001575,53.2187,158.5929,95.6966,264.4206,-9.3123e-05,-1.77e-05,0.0,0 STARLINK-3267,1 50197U 21125AT  24095.89184688 -.00001770  00000-0 -93123-4 0  9994,2 50197  53.2187 158.5929 0001575  95.6966 264.4206 15.08837468130534,6917.888,95.438,540.843,538.664,0.0
50197.0,STARLINK-3267,PAYLOAD,2024-04-05 10:07:20,15.08842273,0.0001448,53.216,156.215,107.4394,252.6756,7.6331e-05,9.27e-06,0.0,0 STARLINK-3267,1 50197U 21125AT  24096.42175990  .00000927  00000-0  76331-4 0  9993,2 50197  53.2160 156.2150 0001448 107.4394 252.6756 15.08842273130081,6917.873,95.437,540.74,538.737,0.0
50197.0,STARLINK-3267,PAYLOAD,2024-04-05 13:18:06,15.08845531,0.0001487,53.2158,155.6182,113.8426,246.2722,0.00013989,1.939e-05,0.0,0 STARLINK-3267,1 50197U 21125AT  24096.55423829  .00001939  00000-0  13989-3 0  9997,2 50197  53.2158 155.6182 0001487 113.8426 246.2722 15.08845531130639,6917.863,95.437,540.757,538.7,0.0
50197.0,STARLINK-3267,PAYLOAD,2024-04-06 09:58:07,15.08842376,0.0001408,53.2155,151.7523,100.0168,260.0983,0.00038463,5.839e-05,0.0,0 STARLINK-3267,1 50197U 21125AT  24097.41536663  .00005839  00000-0  38463-3 0  9991,2 50197  53.2155 151.7523 0001408 100.0168 260.0983 15.08842376130239,6917.873,95.437,540.712,538.764,0.0
50197.0,STARLINK-3267,PAYLOAD,2024-04-06 21:05:49,15.08844293,0.000134,53.2151,149.6688,102.7413,257.3729,0.00024155,3.559e-05,0.0,0 STARLINK-3267,1 50197U 21125AT  24097.87904497  .00003559  00000-0  24155-3 0  9995,2 50197  53.2151 149.6688 0001340 102.7413 257.3729 15.08844293130833,6917.867,95.437,540.659,538.805,0.0
50197.0,STARLINK-3267,PAYLOAD,2024-04-07 12:59:41,15.08840748,0.0001514,53.2158,146.6964,94.6044,265.5121,5.1507e-05,5.32e-06,0.0,0 STARLINK-3267,1 50197U 21125AT  24098.54144699  .00000532  00000-0  51507-4 0  9990,2 50197  53.2158 146.6964 0001514  94.6044 265.5121 15.08840748130407,6917.878,95.438,540.79,538.696,0.0
50197.0,STARLINK-3267,PAYLOAD,2024-04-08 03:18:10,15.08818802,0.000174,53.2156,144.0201,94.6762,265.4429,0.00064072,9.918e-05,0.0,0 STARLINK-3267,1 50197U 21125AT  24099.13761603  .00009918  00000-0  64072-3 0  9993,2 50197  53.2156 144.0201 0001740  94.6762 265.4429 15.08818802130494,6917.945,95.439,541.014,538.606,0.0
50197.0,STARLINK-3267,PAYLOAD,2024-04-08 09:39:41,15.08851281,0.0001533,53.217,142.831,89.3036,270.8131,-3.3488e-05,-8.21e-06,0.0,0 STARLINK-3267,1 50197U 21125AT  24099.40256397 -.00000821  00000-0 -33488-4 0  9996,2 50197  53.2170 142.8310 0001533  89.3036 270.8131 15.08851281130535,6917.846,95.437,540.771,538.65,0.0
50197.0,STARLINK-3267,PAYLOAD,2024-04-09 09:30:28,15.08842082,0.0001408,53.2164,138.3704,86.7569,273.3584,0.00013881,1.922e-05,0.0,0 STARLINK-3267,1 50197U 21125AT  24100.39616590  .00001922  00000-0  13881-3 0  9997,2 50197  53.2164 138.3704 0001408  86.7569 273.3584 15.08842082130683,6917.874,95.437,540.713,538.765,0.0
50197.0,STARLINK-3267,PAYLOAD,2024-04-09 19:02:47,15.088403,0.0001378,53.2162,136.5864,85.2725,274.8424,8.4878e-05,1.063e-05,0.0,0 STARLINK-3267,1 50197U 21125AT  24100.79360834  .00001063  00000-0  84878-4 0  9999,2 50197  53.2162 136.5864 0001378  85.2725 274.8424 15.08840300131278,6917.879,95.438,540.698,538.791,0.0
50197.0,STARLINK-3267,PAYLOAD,2024-04-10 02:59:43,15.08839141,0.0001399,53.2165,135.1005,87.8806,272.2346,6.7196e-05,7.82e-06,0.0,0 STARLINK-3267,1 50197U 21125AT  24101.12480965  .00000782  00000-0  67196-4 0  9996,2 50197  53.2165 135.1005 0001399  87.8806 272.2346 15.08839141130796,6917.883,95.438,540.716,538.78,0.0
50197.0,STARLINK-3267,PAYLOAD,2024-04-10 10:56:39,15.08840464,0.0001391,53.2167,133.6136,87.1544,272.9608,6.0489e-05,6.75e-06,0.0,0 STARLINK-3267,1 50197U 21125AT  24101.45600854  .00000675  00000-0  60489-4 0  9992,2 50197  53.2167 133.6136 0001391  87.1544 272.9608 15.08840464131373,6917.879,95.438,540.706,538.782,0.0
50197.0,STARLINK-3267,PAYLOAD,2024-04-10 18:53:34,15.08838071,0.0001379,53.2166,132.1267,86.2951,273.8199,3.7136e-05,3.03e-06,0.0,0 STARLINK-3267,1 50197U 21125AT  24101.78721057  .00000303  00000-0  37136-4 0  9998,2 50197  53.2166 132.1267 0001379  86.2951 273.8199 15.08838071131421,6917.886,95.438,540.705,538.797,0.0
50197.0,STARLINK-3267,PAYLOAD,2024-04-11 10:47:26,15.08833851,0.0001407,53.2166,129.1536,90.7416,269.3738,-7.9801e-06,-4.15e-06,0.0,0 STARLINK-3267,1 50197U 21125AT  24102.44961625 -.00000415  00000-0 -79801-5 0  9991,2 50197  53.2166 129.1536 0001407  90.7416 269.3738 15.08833851130995,6917.899,95.438,540.738,538.791,0.0
50197.0,STARLINK-3267,PAYLOAD,2024-04-12 10:38:13,15.0884271,0.00014,53.217,124.6925,90.744,269.3712,8.3179e-05,1.036e-05,0.0,0 STARLINK-3267,1 50197U 21125AT  24103.44320993  .00001036  00000-0  83179-4 0  9999,2 50197  53.2170 124.6925 0001400  90.7440 269.3712 15.08842710131146,6917.872,95.437,540.706,538.769,0.0
50197.0,STARLINK-3267,PAYLOAD,2024-04-13 07:18:14,15.0883591,0.0001508,53.217,120.8246,82.5972,277.5191,6.8115e-05,7.96e-06,0.0,0 STARLINK-3267,1 50197U 21125AT  24104.30433786  .00000796  00000-0  68115-4 0  9995,2 50197  53.2170 120.8246 0001508  82.5972 277.5191 15.08835910131278,6917.893,95.438,540.801,538.715,0.0
50197.0,STARLINK-3267,PAYLOAD,2024-04-14 10:19:47,15.08843054,0.0001613,53.2175,115.7681,82.0061,278.1114,5.8459e-05,6.43e-06,0.0,0 STARLINK-3267,1 50197U 21125AT  24105.43041519  .00000643  00000-0  58459-4 0  9990,2 50197  53.2175 115.7681 0001613  82.0061 278.1114 15.08843054131449,6917.871,95.437,540.852,538.62,0.0
50197.0,STARLINK-3267,PAYLOAD,2024-04-15 10:10:34,15.08846433,0.0001544,53.2172,111.3077,103.3521,256.7644,0.00012015,1.625e-05,0.0,0 STARLINK-3267,1 50197U 21125AT  24106.42400962  .00001625  00000-0  12015-3 0  9999,2 50197  53.2172 111.3077 0001544 103.3521 256.7644 15.08846433132128,6917.861,95.437,540.794,538.658,0.0
50197.0,STARLINK-3267,PAYLOAD,2024-04-16 05:15:11,15.08855548,0.0001624,53.217,107.7403,90.3567,269.7611,0.00012177,1.651e-05,0.0,0 STARLINK-3267,1 50197U 21125AT  24107.21888373  .00001651  00000-0  12177-3 0  9991,2 50197  53.2170 107.7403 0001624  90.3567 269.7611 15.08855548131711,6917.833,95.437,540.821,538.574,0.0
